ONEWEB-0350             
1 49214U 21083AE  25003.60938085  .00000410  00000+0  10877-2 0  9992
2 49214  87.8910  65.5387 0002162 104.5608 255.5761 13.13473708162719
ONEWEB-0351             
1 49215U 21083AF  25004.47679198 -.00000016  00000+0 -70863-4 0  9993
2 49215  87.9240  19.6271 0001492 121.4539 238.6741 13.20772002168291
ONEWEB-0352             
1 49216U 21083AG  25004.12358811 -.00000138  00000+0 -41266-3 0  9991
2 49216  87.8917  65.4726 0001760 116.7351 243.3958 13.13470921162871
ONEWEB-0354             
1 49217U 21083AH  25004.50219389  .00000064  00000+0  12488-3 0  9990
2 49217  87.9245  19.6145 0002186  94.8863 265.2520 13.20773210168330
ONEWEB-0355             
1 49218U 21083AJ  25004.15373415  .00000424  00000+0  11259-2 0  9997
2 49218  87.8915  65.4656 0001895 107.3504 252.7832 13.13472890162757
ONEWEB-0357             
1 49219U 21083AK  25003.96873665  .00000083  00000+0  17128-3 0  9991
2 49219  87.9242  19.7324 0001774  97.4821 262.6514 13.20771784166958
ONEWEB-0332             
1 49279U 21090A   25004.50450145 -.00000082  00000+0 -25518-3 0  9993
2 49279  87.8988  34.8478 0001476  96.2537 263.8761 13.14503929158122
ONEWEB-0347             
1 49280U 21090B   25003.95926014  .00000048  00000+0  85011-4 0  9991
2 49280  87.9247  19.7382 0001457  85.2390 274.8910 13.20771810161184
